start=new Date('2022-09-16T00:00:00.000Z').valueOf();
sats=[{"SEMIMAJOR_AXIS":"6950.175","REF_FRAME":"TEME","EPOCH":"2022-09-15T10:47:37.123872","APOAPSIS":"574.367","TLE_LINE1":"1 49150U 21082W   22258.44973523 -.00000117  00000-0 -20053-5 0  9994","ARG_OF_PERICENTER":"256.8485","PERIAPSIS":"569.712","MEAN_ELEMENT_THEORY":"SGP4","RCS_SIZE":"LARGE","CLASSIFICATION_TYPE":"U","MEAN_MOTION_DOT":"-0.00000117","RA_OF_ASC_NODE":"259.6998","MEAN_ANOMALY":"103.2301","INCLINATION":"69.9984","OBJECT_TYPE":"PAYLOAD","DECAY_DATE":null,"GP_ID":"212648550","TLE_LINE2":"2 49150  69.9984 259.6998 0003349 256.8485 103.2301 14.98335933 56763","OBJECT_NAME":"STARLINK-3104","OBJECT_ID":"2021-082W","ELEMENT_SET_NO":"999","NORAD_CAT_ID":"49150","FILE":"3574615","LAUNCH_DATE":"2021-09-14","CENTER_NAME":"EARTH","MEAN_MOTION":"14.98335933","SITE":"AFWTR","TIME_SYSTEM":"UTC","EPHEMERIS_TYPE":"0","COUNTRY_CODE":"US","MEAN_MOTION_DDOT":"0.0000000000000","REV_AT_EPOCH":"5676","PERIOD":"96.107","ECCENTRICITY":"0.00033490","BSTAR":"-0.00000200530000"},{"MEAN_ELEMENT_THEORY":"SGP4","MEAN_ANOMALY":"101.5020","RA_OF_ASC_NODE":"219.9106","MEAN_MOTION_DOT":"-0.00001329","RCS_SIZE":"LARGE","CLASSIFICATION_TYPE":"U","DECAY_DATE":null,"OBJECT_TYPE":"PAYLOAD","INCLINATION":"69.9990","TLE_LINE2":"2 49151  69.9990 219.9106 0002838 258.5819 101.5020 14.96713335 57734","GP_ID":"212648587","REF_FRAME":"TEME","SEMIMAJOR_AXIS":"6955.197","APOAPSIS":"579.036","EPOCH":"2022-09-15T07:27:45.682560","ARG_OF_PERICENTER":"258.5819","TLE_LINE1":"1 49151U 21082X   22258.31094540 -.00001329  00000-0 -10814-3 0  9992","PERIAPSIS":"575.088","TIME_SYSTEM":"UTC","COUNTRY_CODE":"US","EPHEMERIS_TYPE":"0","ECCENTRICITY":"0.00028380","PERIOD":"96.211","REV_AT_EPOCH":"5773","MEAN_MOTION_DDOT":"0.0000000000000","BSTAR":"-0.00010814000000","OBJECT_NAME":"STARLINK-3102","OBJECT_ID":"2021-082X","FILE":"3574617","NORAD_CAT_ID":"49151","ELEMENT_SET_NO":"999","SITE":"AFWTR","CENTER_NAME":"EARTH","LAUNCH_DATE":"2021-09-14","MEAN_MOTION":"14.96713335"},{"SITE":"AFWTR","MEAN_MOTION":"14.96717023","LAUNCH_DATE":"2021-09-14","CENTER_NAME":"EARTH","ELEMENT_SET_NO":"999","FILE":"3575050","NORAD_CAT_ID":"49152","OBJECT_ID":"2021-082Y","OBJECT_NAME":"STARLINK-3081","BSTAR":"0.00001659100000","REV_AT_EPOCH":"5773","PERIOD":"96.211","MEAN_MOTION_DDOT":"0.0000000000000","ECCENTRICITY":"0.00029200","EPHEMERIS_TYPE":"0","COUNTRY_CODE":"US","TIME_SYSTEM":"UTC","PERIAPSIS":"575.019","TLE_LINE1":"1 49152U 21082Y   22258.88739464  .00000098  00000-0  16591-4 0  9995","ARG_OF_PERICENTER":"257.1187","EPOCH":"2022-09-15T21:17:50.896896","APOAPSIS":"579.081","SEMIMAJOR_AXIS":"6955.185","REF_FRAME":"TEME","GP_ID":"212681586","TLE_LINE2":"2 49152  69.9986 218.4498 0002920 257.1187 102.9646 14.96717023 57730","OBJECT_TYPE":"PAYLOAD","INCLINATION":"69.9986","DECAY_DATE":null,"RA_OF_ASC_NODE":"218.4498","CLASSIFICATION_TYPE":"U","RCS_SIZE":"LARGE","MEAN_MOTION_DOT":"0.00000098","MEAN_ANOMALY":"102.9646","MEAN_ELEMENT_THEORY":"SGP4"},{"PERIAPSIS":"574.932","TLE_LINE1":"1 49153U 21082Z   22258.96949072  .00000636  00000-0  63577-4 0  9997","ARG_OF_PERICENTER":"265.3245","EPOCH":"2022-09-15T23:16:03.998208","APOAPSIS":"579.179","SEMIMAJOR_AXIS":"6955.191","REF_FRAME":"TEME","GP_ID":"212658397","TLE_LINE2":"2 49153  69.9996 218.2666 0003053 265.3245  94.7565 14.96715296 56615","INCLINATION":"69.9996","OBJECT_TYPE":"PAYLOAD","DECAY_DATE":null,"CLASSIFICATION_TYPE":"U","RCS_SIZE":"LARGE","MEAN_MOTION_DOT":"0.00000636","RA_OF_ASC_NODE":"218.2666","MEAN_ANOMALY":"94.7565","MEAN_ELEMENT_THEORY":"SGP4","CENTER_NAME":"EARTH","LAUNCH_DATE":"2021-09-14","MEAN_MOTION":"14.96715296","SITE":"AFWTR","ELEMENT_SET_NO":"999","NORAD_CAT_ID":"49153","FILE":"3575017","OBJECT_ID":"2021-082Z","OBJECT_NAME":"STARLINK-3072","BSTAR":"0.00006357700000","MEAN_MOTION_DDOT":"0.0000000000000","REV_AT_EPOCH":"5661","PERIOD":"96.211","ECCENTRICITY":"0.00030530","EPHEMERIS_TYPE":"0","COUNTRY_CODE":"US","TIME_SYSTEM":"UTC"},{"BSTAR":"0.00005547800000","ECCENTRICITY":"0.00043530","REV_AT_EPOCH":"5711","PERIOD":"96.106","MEAN_MOTION_DDOT":"0.0000000000000","COUNTRY_CODE":"US","EPHEMERIS_TYPE":"0","TIME_SYSTEM":"UTC","SITE":"AFWTR","MEAN_MOTION":"14.98345695","LAUNCH_DATE":"2021-09-14","CENTER_NAME":"EARTH","FILE":"3574601","NORAD_CAT_ID":"49154","ELEMENT_SET_NO":"999","OBJECT_ID":"2021-082AA","OBJECT_NAME":"STARLINK-3068","TLE_LINE2":"2 49154  69.9991 239.9367 0004353 250.8475 109.2213 14.98345695 57119","GP_ID":"212645426","DECAY_DATE":null,"OBJECT_TYPE":"PAYLOAD","INCLINATION":"69.9991","MEAN_ANOMALY":"109.2213","RA_OF_ASC_NODE":"239.9367","RCS_SIZE":"LARGE","MEAN_MOTION_DOT":"0.00000569","CLASSIFICATION_TYPE":"U","MEAN_ELEMENT_THEORY":"SGP4","PERIAPSIS":"568.984","ARG_OF_PERICENTER":"250.8475","TLE_LINE1":"1 49154U 21082AA  22258.35091338  .00000569  00000-0  55478-4 0  9990","APOAPSIS":"575.035","EPOCH":"2022-09-15T08:25:18.916032","REF_FRAME":"TEME","SEMIMAJOR_AXIS":"6950.144"},{"EPOCH":"2022-09-15T21:10:29.425728","APOAPSIS":"579.255","SEMIMAJOR_AXIS":"6955.174","REF_FRAME":"TEME","PERIAPSIS":"574.822","TLE_LINE1":"1 49155U 21082AB  22258.88228502  .00001465  00000-0  13595-3 0  9993","ARG_OF_PERICENTER":"256.4607","RA_OF_ASC_NODE":"218.3637","RCS_SIZE":"LARGE","CLASSIFICATION_TYPE":"U","MEAN_MOTION_DOT":"0.00001465","MEAN_ANOMALY":"103.6196","MEAN_ELEMENT_THEORY":"SGP4","GP_ID":"212682834","TLE_LINE2":"2 49155  70.0023 218.3637 0003187 256.4607 103.6196 14.96720818 57696","OBJECT_TYPE":"PAYLOAD","INCLINATION":"70.0023","DECAY_DATE":null,"OBJECT_ID":"2021-082AB","OBJECT_NAME":"STARLINK-3060","SITE":"AFWTR","MEAN_MOTION":"14.96720818","LAUNCH_DATE":"2021-09-14","CENTER_NAME":"EARTH","ELEMENT_SET_NO":"999","FILE":"3575050","NORAD_CAT_ID":"49155","EPHEMERIS_TYPE":"0","COUNTRY_CODE":"US","TIME_SYSTEM":"UTC","BSTAR":"0.00013595000000","REV_AT_EPOCH":"5769","PERIOD":"96.210","MEAN_MOTION_DDOT":"0.0000000000000","ECCENTRICITY":"0.00031870"},{"SITE":"AFWTR","LAUNCH_DATE":"2021-09-14","CENTER_NAME":"EARTH","MEAN_MOTION":"14.96713179","ELEMENT_SET_NO":"999","FILE":"3575050","NORAD_CAT_ID":"49156","OBJECT_ID":"2021-082AC","OBJECT_NAME":"STARLINK-3085","BSTAR":"-0.00001616500000","PERIOD":"96.211","REV_AT_EPOCH":"5769","MEAN_MOTION_DDOT":"0.0000000000000","ECCENTRICITY":"0.00032500","EPHEMERIS_TYPE":"0","COUNTRY_CODE":"US","TIME_SYSTEM":"UTC","PERIAPSIS":"574.802","TLE_LINE1":"1 49156U 21082AC  22258.87768086 -.00000277  00000-0 -16165-4 0  9998","ARG_OF_PERICENTER":"266.0773","EPOCH":"2022-09-15T21:03:51.626304","APOAPSIS":"579.323","SEMIMAJOR_AXIS":"6955.197","REF_FRAME":"TEME","GP_ID":"212682086","TLE_LINE2":"2 49156  69.9991 218.4805 0003250 266.0773  94.0014 14.96713179 57692","OBJECT_TYPE":"PAYLOAD","INCLINATION":"69.9991","DECAY_DATE":null,"RA_OF_ASC_NODE":"218.4805","CLASSIFICATION_TYPE":"U","RCS_SIZE":"LARGE","MEAN_MOTION_DOT":"-0.00000277","MEAN_ANOMALY":"94.0014","MEAN_ELEMENT_THEORY":"SGP4"},{"REF_FRAME":"TEME","SEMIMAJOR_AXIS":"6950.181","APOAPSIS":"575.819","EPOCH":"2022-09-15T16:19:07.690368","ARG_OF_PERICENTER":"251.8442","TLE_LINE1":"1 49157U 21082AD  22258.67995012  .00002557  00000-0  22196-3 0  9999","PERIAPSIS":"568.273","MEAN_ELEMENT_THEORY":"SGP4","MEAN_ANOMALY":"108.2126","RA_OF_ASC_NODE":"239.1023","CLASSIFICATION_TYPE":"U","RCS_SIZE":"LARGE","MEAN_MOTION_DOT":"0.00002557","DECAY_DATE":null,"OBJECT_TYPE":"PAYLOAD","INCLINATION":"70.0012","TLE_LINE2":"2 49157  70.0012 239.1023 0005429 251.8442 108.2126 14.98333766 57185","GP_ID":"212681836","OBJECT_NAME":"STARLINK-3051","OBJECT_ID":"2021-082AD","FILE":"3575050","NORAD_CAT_ID":"49157","ELEMENT_SET_NO":"999","SITE":"AFWTR","LAUNCH_DATE":"2021-09-14","MEAN_MOTION":"14.98333766","CENTER_NAME":"EARTH","TIME_SYSTEM":"UTC","COUNTRY_CODE":"US","EPHEMERIS_TYPE":"0","ECCENTRICITY":"0.00054290","PERIOD":"96.107","REV_AT_EPOCH":"5718","MEAN_MOTION_DDOT":"0.0000000000000","BSTAR":"0.00022196000000"},{"INCLINATION":"70.0002","OBJECT_TYPE":"PAYLOAD","DECAY_DATE":null,"GP_ID":"212645927","TLE_LINE2":"2 49158  70.0002 239.8054 0003065 258.8937 101.1878 14.99135742 57143","MEAN_ELEMENT_THEORY":"SGP4","RCS_SIZE":"LARGE","MEAN_MOTION_DOT":"0.00000955","CLASSIFICATION_TYPE":"U","RA_OF_ASC_NODE":"239.8054","MEAN_ANOMALY":"101.1878","TLE_LINE1":"1 49158U 21082AE  22258.40865791  .00000955  00000-0  86092-4 0  9997","ARG_OF_PERICENTER":"258.8937","PERIAPSIS":"567.438","SEMIMAJOR_AXIS":"6947.702","REF_FRAME":"TEME","EPOCH":"2022-09-15T09:48:28.043424","APOAPSIS":"571.697","MEAN_MOTION_DDOT":"0.0000000000000","PERIOD":"96.055","REV_AT_EPOCH":"5714","ECCENTRICITY":"0.00030650","BSTAR":"0.00008609200000","TIME_SYSTEM":"UTC","EPHEMERIS_TYPE":"0","COUNTRY_CODE":"US","ELEMENT_SET_NO":"999","NORAD_CAT_ID":"49158","FILE":"3574601","LAUNCH_DATE":"2021-09-14","MEAN_MOTION":"14.99135742","CENTER_NAME":"EARTH","SITE":"AFWTR","OBJECT_NAME":"STARLINK-3083","OBJECT_ID":"2021-082AE"},{"ELEMENT_SET_NO":"999","FILE":"3575050","NORAD_CAT_ID":"49159","SITE":"AFWTR","MEAN_MOTION":"14.98321598","LAUNCH_DATE":"2021-09-14","CENTER_NAME":"EARTH","OBJECT_NAME":"STARLINK-3056","OBJECT_ID":"2021-082AF","REV_AT_EPOCH":"5669","PERIOD":"96.108","MEAN_MOTION_DDOT":"0.0000000000000","ECCENTRICITY":"0.00031440","BSTAR":"0.00032470000000","TIME_SYSTEM":"UTC","EPHEMERIS_TYPE":"0","COUNTRY_CODE":"US","TLE_LINE1":"1 49159U 21082AF  22258.71201268  .00003783  00000-0  32470-3 0  9997","ARG_OF_PERICENTER":"253.4705","PERIAPSIS":"569.899","SEMIMAJOR_AXIS":"6950.219","REF_FRAME":"TEME","EPOCH":"2022-09-15T17:05:17.895552","APOAPSIS":"574.269","OBJECT_TYPE":"PAYLOAD","INCLINATION":"69.9994","DECAY_DATE":null,"GP_ID":"212683334","TLE_LINE2":"2 49159  69.9994 259.0433 0003144 253.4705 106.6109 14.98321598 56699","MEAN_ELEMENT_THEORY":"SGP4","RA_OF_ASC_NODE":"259.0433","RCS_SIZE":"LARGE","CLASSIFICATION_TYPE":"U","MEAN_MOTION_DOT":"0.00003783","MEAN_ANOMALY":"106.6109"}];
